{"type": "FeatureCollection", "features": [ {"type": "Feature", "properties": {"norad_id": 38552, "name": "METEOSAT-10 (MSG-3)", "group": "weather", "lat": -1.9444660399916516, "lon": 34.17453614833294, "alt_km": 35784.41019258136, "timestamp": "2025-12-14T20:40:31.410020+00:00", "meta": {"OBJECT_NAME": "METEOSAT-10 (MSG-3)", "OBJECT_ID": "2012-035B", "EPOCH": "2025-12-14T01:26:06.688896", "MEAN_MOTION": 1.00275422, "ECCENTRICITY": 7.419e-05, "INCLINATION": 4.232, "RA_OF_ASC_NODE": 61.7218, "ARG_OF_PERICENTER": 258.8887, "MEAN_ANOMALY": 144.0945, "EPHEMERIS_TYPE": 0, "CLASSIFICATION_TYPE": "U", "NORAD_CAT_ID": 38552, "ELEMENT_SET_NO": 999, "REV_AT_EPOCH": 4900, "BSTAR": 0, "MEAN_MOTION_DOT": 1e-07, "MEAN_MOTION_DDOT": 0}, "tle": {"line1": "1 38552U 12035B   25348.05979964  .00000010  00000+0  00000+0 0  9994", "line2": "2 38552   4.2320  61.7218 0000741 258.8887 144.0945  1.00275422 49002"}}, "geometry": {"type": "Point", "coordinates": [34.17453614833294, -1.9444660399916516]}}, {"type": "Feature", "properties": {"norad_id": 38771, "name": "METOP-B", "group": "weather", "lat": 40.602515852197655, "lon": -133.69163924682852, "alt_km": 815.2053986937526, "timestamp": "2025-12-14T20:40:31.410031+00:00", "meta": {"OBJECT_NAME": "METOP-B", "OBJECT_ID": "2012-049A", "EPOCH": "2025-12-14T08:11:56.450112", "MEAN_MOTION": 14.21409033, "ECCENTRICITY": 0.00029737, "INCLINATION": 98.6799, "RA_OF_ASC_NODE": 38.2733, "ARG_OF_PERICENTER": 140.6559, "MEAN_ANOMALY": 219.4835, "EPHEMERIS_TYPE": 0, "CLASSIFICATION_TYPE": "U", "NORAD_CAT_ID": 38771, "ELEMENT_SET_NO": 999, "REV_AT_EPOCH": 68700, "BSTAR": 0.00010203208, "MEAN_MOTION_DOT": 1.79e-06, "MEAN_MOTION_DDOT": 0}, "tle": {"line1": "1 38771U 12049A   25348.34162558  .00000179  00000+0  10203-3 0  9993", "line2": "2 38771  98.6799  38.2733 0002973 140.6559 219.4835 14.21409033687003"}}, "geometry": {"type": "Point", "coordinates": [-133.69163924682852, 40.602515852197655]}}, {"type": "Feature", "properties": {"norad_id": 39216, "name": "INSAT-3D", "group": "weather", "lat": 1.4181957010604527, "lon": 163.39409983588814, "alt_km": 35786.35191063835, "timestamp": "2025-12-14T20:40:31.410043+00:00", "meta": {"OBJECT_NAME": "INSAT-3D", "OBJECT_ID": "2013-038B", "EPOCH": "2025-12-14T07:11:10.777056", "MEAN_MOTION": 1.00269358, "ECCENTRICITY": 0.00013643, "INCLINATION": 1.4489, "RA_OF_ASC_NODE": 84.9786, "ARG_OF_PERICENTER": 165.302, "MEAN_ANOMALY": 70.2558, "EPHEMERIS_TYPE": 0, "CLASSIFICATION_TYPE": "U", "NORAD_CAT_ID": 39216, "ELEMENT_SET_NO": 999, "REV_AT_EPOCH": 4522, "BSTAR": 0, "MEAN_MOTION_DOT": -3.22e-06, "MEAN_MOTION_DDOT": 0}, "tle": {"line1": "1 39216U 13038B   25348.29943029 -.00000322  00000+0  00000+0 0  9992", "line2": "2 39216   1.4489  84.9786 0001364 165.3020  70.2558  1.00269358 45226"}}, "geometry": {"type": "Point", "coordinates": [163.39409983588814, 1.4181957010604527]}}, {"type": "Feature", "properties": {"norad_id": 39260, "name": "FENGYUN 3C", "group": "weather", "lat": -17.695732760167033, "lon": -30.835647751216555, "alt_km": 854.0438518662031, "timestamp": "2025-12-14T20:40:31.410055+00:00", "meta": {"OBJECT_NAME": "FENGYUN 3C", "OBJECT_ID": "2013-052A", "EPOCH": "2025-12-14T07:11:24.177696", "MEAN_MOTION": 14.15696873, "ECCENTRICITY": 0.00143713, "INCLINATION": 98.4764, "RA_OF_ASC_NODE": 325.9028, "ARG_OF_PERICENTER": 191.4115, "MEAN_ANOMALY": 168.6736, "EPHEMERIS_TYPE": 0, "CLASSIFICATION_TYPE": "U", "NORAD_CAT_ID": 39260, "ELEMENT_SET_NO": 999, "REV_AT_EPOCH": 63240, "BSTAR": 9.7465985e-05, "MEAN_MOTION_DOT": 1.5e-06, "MEAN_MOTION_DDOT": 0}, "tle": {"line1": "1 39260U 13052A   25348.29958539  .00000150  00000+0  97466-4 0  9994", "line2": "2 39260  98.4764 325.9028 0014371 191.4115 168.6736 14.15696873632409"}}, "geometry": {"type": "Point", "coordinates": [-30.835647751216555, -17.695732760167033]}}, {"type": "Feature", "properties": {"norad_id": 40069, "name": "METEOR-M 2", "group": "weather", "lat": 6.7118930661236, "lon": -34.64242256654596, "alt_km": 826.1667018570897, "timestamp": "2025-12-14T20:40:31.410066+00:00", "meta": {"OBJECT_NAME": "METEOR-M 2", "OBJECT_ID": "2014-037A", "EPOCH": "2025-12-14T08:49:02.510688", "MEAN_MOTION": 14.2138736, "ECCENTRICITY": 0.00050521, "INCLINATION": 98.4903, "RA_OF_ASC_NODE": 325.8897, "ARG_OF_PERICENTER": 204.3738, "MEAN_ANOMALY": 155.7201, "EPHEMERIS_TYPE": 0, "CLASSIFICATION_TYPE": "U", "NORAD_CAT_ID": 40069, "ELEMENT_SET_NO": 999, "REV_AT_EPOCH": 59306, "BSTAR": 0.00014038926, "MEAN_MOTION_DOT": 2.65e-06, "MEAN_MOTION_DDOT": 0}, "tle": {"line1": "1 40069U 14037A   25348.36739017  .00000265  00000+0  14039-3 0  9994", "line2": "2 40069  98.4903 325.8897 0005052 204.3738 155.7201 14.21387360593064"}}, "geometry": {"type": "Point", "coordinates": [-34.64242256654596, 6.7118930661236]}}, {"type": "Feature", "properties": {"norad_id": 40267, "name": "HIMAWARI-8", "group": "weather", "lat": -0.007782752905122958, "lon": 174.54562788948877, "alt_km": 35786.90026425956, "timestamp": "2025-12-14T20:40:31.410078+00:00", "meta": {"OBJECT_NAME": "HIMAWARI-8", "OBJECT_ID": "2014-060A", "EPOCH": "2025-12-14T07:14:25.465632", "MEAN_MOTION": 1.00273368, "ECCENTRICITY": 9.527e-05, "INCLINATION": 0.0215, "RA_OF_ASC_NODE": 215.228, "ARG_OF_PERICENTER": 66.8436, "MEAN_ANOMALY": 50.415, "EPHEMERIS_TYPE": 0, "CLASSIFICATION_TYPE": "U", "NORAD_CAT_ID": 40267, "ELEMENT_SET_NO": 999, "REV_AT_EPOCH": 4090, "BSTAR": 0, "MEAN_MOTION_DOT": -2.57e-06, "MEAN_MOTION_DDOT": 0}, "tle": {"line1": "1 40267U 14060A   25348.30168363 -.00000257  00000+0  00000+0 0  9995", "line2": "2 40267   0.0215 215.2280 0000952  66.8436  50.4150  1.00273368 40906"}}, "geometry": {"type": "Point", "coordinates": [174.54562788948877, -0.007782752905122958]}}, {"type": "Feature", "properties": {"norad_id": 40367, "name": "FENGYUN 2G", "group": "weather", "lat": 4.4104817302700186, "lon": 133.241526420843, "alt_km": 35797.96995081025, "timestamp": "2025-12-14T20:40:31.410090+00:00", "meta": {"OBJECT_NAME": "FENGYUN 2G", "OBJECT_ID": "2014-090A", "EPOCH": "2025-12-13T19:03:33.526656", "MEAN_MOTION": 1.00263852, "ECCENTRICITY": 0.00030684, "INCLINATION": 5.1713, "RA_OF_ASC_NODE": 75.0867, "ARG_OF_PERICENTER": 199.4917, "MEAN_ANOMALY": 193.5321, "EPHEMERIS_TYPE": 0, "CLASSIFICATION_TYPE": "U", "NORAD_CAT_ID": 40367, "ELEMENT_SET_NO": 999, "REV_AT_EPOCH": 4014, "BSTAR": 0, "MEAN_MOTION_DOT": -2.86e-06, "MEAN_MOTION_DDOT": 0}, "tle": {"line1": "1 40367U 14090A   25347.79413804 -.00000286  00000+0  00000+0 0  9996", "line2": "2 40367   5.1713  75.0867 0003068 199.4917 193.5321  1.00263852 40149"}}, "geometry": {"type": "Point", "coordinates": [133.241526420843, 4.4104817302700186]}}, {"type": "Feature", "properties": {"norad_id": 40732, "name": "METEOSAT-11 (MSG-4)", "group": "weather", "lat": -1.3021407292604696, "lon": 43.18081382348557, "alt_km": 35790.873743251905, "timestamp": "2025-12-14T20:40:31.410102+00:00", "meta": {"OBJECT_NAME": "METEOSAT-11 (MSG-4)", "OBJECT_ID": "2015-034A", "EPOCH": "2025-12-14T04:54:08.901216", "MEAN_MOTION": 1.00267947, "ECCENTRICITY": 9.241e-05, "INCLINATION": 2.7392, "RA_OF_ASC_NODE": 71.9971, "ARG_OF_PERICENTER": 128.5405, "MEAN_ANOMALY": 325.3944, "EPHEMERIS_TYPE": 0, "CLASSIFICATION_TYPE": "U", "NORAD_CAT_ID": 40732, "ELEMENT_SET_NO": 999, "REV_AT_EPOCH": 536, "BSTAR": 0, "MEAN_MOTION_DOT": 7.8e-07, "MEAN_MOTION_DDOT": 0}, "tle": {"line1": "1 40732U 15034A   25348.20426969  .00000078  00000+0  00000+0 0  9992", "line2": "2 40732   2.7392  71.9971 0000924 128.5405 325.3944  1.00267947  5365"}}, "geometry": {"type": "Point", "coordinates": [43.18081382348557, -1.3021407292604696]}}, {"type": "Feature", "properties": {"norad_id": 41105, "name": "ELEKTRO-L 2", "group": "weather", "lat": -4.984842058134638, "lon": 19.613522001631612, "alt_km": 35789.23436634719, "timestamp": "2025-12-14T20:40:31.410115+00:00", "meta": {"OBJECT_NAME": "ELEKTRO-L 2", "OBJECT_ID": "2015-074A", "EPOCH": "2025-12-14T01:21:52.095744", "MEAN_MOTION": 1.0027252, "ECCENTRICITY": 0.00038925, "INCLINATION": 6.2293, "RA_OF_ASC_NODE": 72.8137, "ARG_OF_PERICENTER": 207.3981, "MEAN_ANOMALY": 168.7392, "EPHEMERIS_TYPE": 0, "CLASSIFICATION_TYPE": "U", "NORAD_CAT_ID": 41105, "ELEMENT_SET_NO": 999, "REV_AT_EPOCH": 3665, "BSTAR": 0, "MEAN_MOTION_DOT": -1.03e-06, "MEAN_MOTION_DDOT": 0}, "tle": {"line1": "1 41105U 15074A   25348.05685296 -.00000103  00000+0  00000+0 0  9994", "line2": "2 41105   6.2293  72.8137 0003892 207.3981 168.7392  1.00272520 36650"}}, "geometry": {"type": "Point", "coordinates": [19.613522001631612, -4.984842058134638]}}, {"type": "Feature", "properties": {"norad_id": 41752, "name": "INSAT-3DR", "group": "weather", "lat": 0.051102535705245096, "lon": 107.83969630319761, "alt_km": 35844.009603182014, "timestamp": "2025-12-14T20:40:31.410127+00:00", "meta": {"OBJECT_NAME": "INSAT-3DR", "OBJECT_ID": "2016-054A", "EPOCH": "2025-12-14T00:04:29.508384", "MEAN_MOTION": 1.0027137, "ECCENTRICITY": 0.00142858, "INCLINATION": 0.095, "RA_OF_ASC_NODE": 86.7631, "ARG_OF_PERICENTER": 184.1849, "MEAN_ANOMALY": 247.0969, "EPHEMERIS_TYPE": 0, "CLASSIFICATION_TYPE": "U", "NORAD_CAT_ID": 41752, "ELEMENT_SET_NO": 999, "REV_AT_EPOCH": 3396, "BSTAR": 0, "MEAN_MOTION_DOT": -6e-07, "MEAN_MOTION_DDOT": 0}, "tle": {"line1": "1 41752U 16054A   25348.00311931 -.00000060  00000+0  00000+0 0  9990", "line2": "2 41752   0.0950  86.7631 0014285 184.1849 247.0969  1.00271370 33960"}}, "geometry": {"type": "Point", "coordinates": [107.83969630319761, 0.051102535705245096]}}]}